     3.00           N                   E                   RINEX VERSION / TYPE
BRD_USR             ESA                 20190111 201748  UTCPGM / RUN BY / DATE
 GAL   4.5750E+01  3.1250E-02 -1.9836E-03  0.0000E+00       IONOSPHERIC CORR
GAUT  2.7939677238E-09-1.776356839E-15 432000 2035 GSTB   0 TIME SYSTEM CORR
GPGA  2.1827872843E-09 1.199040867E-14 518400 2035 GSTB   0 TIME SYSTEM CORR
                                                            END OF HEADER
E36 2019 01 11 18 40 00 7.608290761709E-04-4.462208380573E-12 0.000000000000E+00
     6.400000000000E+01 2.787500000000E+01 2.895120593393E-09-4.685201932324E-01
     1.378357410431E-06 3.342243144289E-04 3.289431333542E-06 5.440594879150E+03
     4.992000000000E+05-5.960464477539E-08-8.688057676704E-01-1.490116119385E-08
     9.851591136371E-01 2.819375000000E+02-1.549907262487E+00-5.729524371974E-09
     2.214377952016E-10 2.580000000000E+02 2.035000000000E+03 0.000000000000E+00
     3.120000000000E+00 5.600000000000E+01 1.164153218269E-09 0.000000000000E+00
     4.999000000000E+05 0.000000000000E+00 0.000000000000E+00 0.000000000000E+00
E07 2019 01 11 18 40 00-1.107258140109E-04-7.062794793455E-12 0.000000000000E+00
     6.400000000000E+01-1.165625000000E+01 3.212633819094E-09-1.670915142723E-01
    -4.954636096954E-07 1.372181577608E-04 1.036748290062E-05 5.440624904633E+03
     4.992000000000E+05 2.048909664154E-08 1.241798396333E+00-1.676380634308E-08
     9.524793216726E-01 1.172812500000E+02-2.540922662485E-02-5.525587305748E-09
     3.100129132822E-10 5.210000000000E+02 2.035000000000E+03 0.000000000000E+00
     3.120000000000E+00 0.000000000000E+00 0.000000000000E+00-2.328306436539E-10
     4.999150000000E+05 0.000000000000E+00 0.000000000000E+00 0.000000000000E+00
E27 2019 01 11 18 40 00 5.517320823856E-04-7.659650691494E-12 0.000000000000E+00
     6.400000000000E+01-6.468750000000E+00 2.840118302327E-09-1.425610890164E+00
    -2.514570951462E-07 1.919919159263E-04 7.782131433487E-06 5.440627204895E+03
     4.992000000000E+05 3.352761268616E-08-2.951409195411E+00-7.823109626770E-08
     9.897005482461E-01 1.852500000000E+02-8.389709958810E-01-5.480228273505E-09
    -4.671623163285E-10 5.210000000000E+02 2.035000000000E+03 0.000000000000E+00
     3.120000000000E+00 0.000000000000E+00-3.026798367500E-09-3.492459654808E-09
     5.000350000000E+05 0.000000000000E+00 0.000000000000E+00 0.000000000000E+00
E27 2019 01 11 18 40 00 5.517324898392E-04-7.659650691494E-12 0.000000000000E+00
     6.400000000000E+01-6.468750000000E+00 2.840118302327E-09-1.425610890164E+00
    -2.514570951462E-07 1.919919159263E-04 7.782131433487E-06 5.440627204895E+03
     4.992000000000E+05 3.352761268616E-08-2.951409195411E+00-7.823109626770E-08
     9.897005482461E-01 1.852500000000E+02-8.389709958810E-01-5.480228273505E-09
    -4.671623163285E-10 2.580000000000E+02 2.035000000000E+03 0.000000000000E+00
     3.120000000000E+00 0.000000000000E+00-3.026798367500E-09 0.000000000000E+00
     5.000500000000E+05 0.000000000000E+00 0.000000000000E+00 0.000000000000E+00
E26 2019 01 11 18 40 00 5.031080858316E-03-4.325784175307E-11 0.000000000000E+00
     6.400000000000E+01 1.559375000000E+01 2.964766351562E-09 3.141038725511E+00
     8.065253496170E-07 3.199471393600E-04 2.402812242508E-06 5.440606094360E+03
     4.992000000000E+05-3.911554813385E-08-8.598836058551E-01 1.676380634308E-08
     9.782715621944E-01 2.982500000000E+02-2.013381288041E+00-5.753811097899E-09
     1.460775132862E-10 2.580000000000E+02 2.035000000000E+03 0.000000000000E+00
     3.120000000000E+00 0.000000000000E+00 1.396983861923E-09 0.000000000000E+00
     5.002000000000E+05 0.000000000000E+00 0.000000000000E+00 0.000000000000E+00
E26 2019 01 11 18 40 00 5.031081149355E-03-4.325784175307E-11 0.000000000000E+00
     6.400000000000E+01 1.559375000000E+01 2.964766351562E-09 3.141038725511E+00
     8.065253496170E-07 3.199471393600E-04 2.402812242508E-06 5.440606094360E+03
     4.992000000000E+05-3.911554813385E-08-8.598836058551E-01 1.676380634308E-08
     9.782715621944E-01 2.982500000000E+02-2.013381288041E+00-5.753811097899E-09
     1.460775132862E-10 5.210000000000E+02 2.035000000000E+03 0.000000000000E+00
     3.120000000000E+00 0.000000000000E+00 1.396983861923E-09 1.396983861923E-09
     5.002150000000E+05 0.000000000000E+00 0.000000000000E+00 0.000000000000E+00
E14 2019 01 11 18 40 00 6.461385346483E-03-5.599076757790E-12 0.000000000000E+00
     6.400000000000E+01 9.393750000000E+01 2.343669051795E-09-1.748828521156E+00
     6.468966603279E-06 1.662772460841E-01 2.371147274971E-06 5.289386348724E+03
     4.992000000000E+05 4.306435585022E-06-1.465198578373E+00-6.426125764847E-07
     8.826381555020E-01 2.958750000000E+02 1.456673189200E+00-3.599078487494E-09
     7.528885036853E-10 5.210000000000E+02 2.035000000000E+03 0.000000000000E+00
     3.120000000000E+00 4.550000000000E+02 3.306195139885E-08 3.725290298462E-08
     5.002450000000E+05 0.000000000000E+00 0.000000000000E+00 0.000000000000E+00
E14 2019 01 11 18 40 00 6.461381039117E-03-5.599076757790E-12 0.000000000000E+00
     6.400000000000E+01 9.393750000000E+01 2.343669051795E-09-1.748828521156E+00
     6.468966603279E-06 1.662772460841E-01 2.371147274971E-06 5.289386348724E+03
     4.992000000000E+05 4.306435585022E-06-1.465198578373E+00-6.426125764847E-07
     8.826381555020E-01 2.958750000000E+02 1.456673189200E+00-3.599078487494E-09
     7.528885036853E-10 2.580000000000E+02 2.035000000000E+03 0.000000000000E+00
     3.120000000000E+00 5.600000000000E+01 3.306195139885E-08 0.000000000000E+00
     5.002500000000E+05 0.000000000000E+00 0.000000000000E+00 0.000000000000E+00